OBJECT_NAME,OBJECT_ID,EPOCH,MEAN_MOTION,ECCENTRICITY,INCLINATION,RA_OF_ASC_NODE,ARG_OF_PERICENTER,MEAN_ANOMALY,EPHEMERIS_TYPE,CLASSIFICATION_TYPE,NORAD_CAT_ID,ELEMENT_SET_NO,REV_AT_EPOCH,BSTAR,MEAN_MOTION_DOT,MEAN_MOTION_DDOT
ONEWEB-0365,2021-090N,2026-06-09T10:52:52.792320,13.19724482,.00017625,87.9174,306.5073,98.1343,261.9989,0,U,49291,999,22540,.84098212E-4,.47E-6,0
ONEWEB-0366,2021-090P,2026-06-09T08:49:03.634752,13.14502551,.00019259,87.8958,291.2654,99.9933,260.1414,0,U,49292,999,22653,.38212849E-3,.154E-5,0
ONEWEB-0367,2021-090Q,2026-06-09T08:38:43.697472,13.20782964,.00018432,87.9195,276.0004,105.3155,254.8183,0,U,49293,999,22879,.34956892E-2,.1435E-4,0
ONEWEB-0368,2021-090R,2026-06-09T13:28:22.717920,13.20770094,.00016238,87.9179,275.9715,79.1185,281.0131,0,U,49294,999,22997,.69215596E-4,.41E-6,0
ONEWEB-0369,2021-090S,2026-06-09T10:46:03.741024,13.19724242,.00017714,87.9163,306.5165,95.5485,264.5850,0,U,49295,999,22539,.22280755E-4,.22E-6,0
ONEWEB-0370,2021-090T,2026-06-09T08:52:01.503840,13.20770182,.00021042,87.9191,275.9982,107.5029,252.6334,0,U,49296,999,22883,.18565401E-4,.21E-6,0
ONEWEB-0371,2021-090U,2026-06-09T09:08:14.746272,13.19724642,.00017922,87.9170,306.5217,100.2836,259.8498,0,U,49297,999,22542,.71774894E-4,.42E-6,0
ONEWEB-0372,2021-090V,2026-06-09T14:04:33.250080,13.20771533,.00019154,87.9191,275.9566,100.8795,259.2554,0,U,49298,999,22883,.14504367E-3,.72E-6,0
ONEWEB-0373,2021-090W,2026-06-09T07:24:45.978336,13.20771111,.00020277,87.9188,276.0125,100.3469,259.7893,0,U,49299,999,22998,.28143517E-4,.24E-6,0
ONEWEB-0374,2021-090X,2026-06-09T10:20:24.525024,13.14503075,.00022812,87.8961,291.2433,87.5595,272.5796,0,U,49300,999,22654,.7433882E-3,.288E-5,0
ONEWEB-0375,2021-090Y,2026-06-09T08:56:53.747520,13.20770913,.00024035,87.9192,275.9911,90.4206,269.7203,0,U,49301,999,22949,-.10862466E-3,-.31E-6,0
ONEWEB-0376,2021-090Z,2026-06-09T10:55:09.120288,13.19725076,.00016507,87.9173,306.5067,97.6886,262.4434,0,U,49302,999,22543,-.9373485E-4,-.25E-6,0
ONEWEB-0377,2021-090AA,2026-06-09T14:04:58.420992,13.20772326,.00021708,87.9191,275.9506,100.3155,259.8223,0,U,49303,999,22951,.1575421E-3,.77E-6,0
ONEWEB-0378,2021-090AB,2026-06-09T09:06:46.112832,13.20770210,.00020005,87.9186,275.9970,96.2905,263.8456,0,U,49304,999,22875,.16765536E-3,.81E-6,0
ONEWEB-0379,2021-090AC,2026-06-09T08:23:56.381568,13.14502837,.00019023,87.8959,291.2704,95.6060,264.5286,0,U,49305,999,22653,.53425058E-3,.211E-5,0
ONEWEB-0380,2021-090AD,2026-06-09T10:50:36.924000,13.19724585,.00020522,87.9164,306.5132,97.6499,262.4867,0,U,49306,999,22540,-.30562092E-4,.1E-7,0
ONEWEB-0381,2021-090AE,2026-06-09T13:59:55.447296,13.20771953,.0002134,87.9192,275.9559,94.1316,266.0061,0,U,49307,999,22882,.24687803E-3,.113E-5,0
ONEWEB-0382,2021-090AF,2026-06-09T13:40:30.010656,13.20769815,.00020563,87.9188,275.9529,92.0453,268.0915,0,U,49308,999,22881,.12688104E-3,.65E-6,0
ONEWEB-0383,2021-090AG,2026-06-09T08:14:46.671936,13.14505334,.00018517,87.8963,291.2627,94.7215,265.4126,0,U,49309,999,22656,.63132899E-3,.247E-5,0
ONEWEB-0384,2021-090AH,2026-06-09T13:24:29.881152,13.20812405,.00020775,87.9191,275.9986,87.1135,273.0236,0,U,49310,999,22882,.69566259E-4,.41E-6,0
ONEWEB-0385,2021-090AJ,2026-06-09T13:30:50.066208,13.20772653,.00020398,87.9189,275.9594,94.6756,265.4610,0,U,49311,999,22879,.16104385E-3,.78E-6,0
ONEWEB-0386,2021-090AK,2026-06-09T13:55:04.434816,13.20771780,.00019931,87.9193,275.9468,92.5360,267.6001,0,U,49312,999,22881,.20553509E-3,.97E-6,0
ONEWEB-0387,2021-090AL,2026-06-09T08:05:59.328672,13.20772439,.00023077,87.9178,276.0181,98.4247,261.7148,0,U,49313,999,22878,.12375462E-3,.63E-6,0
ONEWEB-0388,2021-090AM,2026-06-09T10:43:47.563392,13.19724832,.0001913,87.9164,306.5123,93.0026,267.1326,0,U,49314,999,22539,.21154217E-3,.98E-6,0
ONEWEB-0389,2021-132A,2026-06-09T12:41:59.525088,13.17647819,.00021962,87.9138,7.3920,83.7552,276.3830,0,U,50469,999,21707,-.2268535E-4,.4E-7,0
ONEWEB-0390,2021-132B,2026-06-09T12:44:25.264608,13.17648119,.00019093,87.9138,7.3925,93.6457,266.4893,0,U,50470,999,21707,.90634618E-4,.48E-6,0
ONEWEB-0391,2021-132C,2026-06-09T12:46:51.170880,13.17647842,.00026901,87.9138,7.4018,90.4631,269.6808,0,U,50471,999,21707,.38322156E-4,.28E-6,0
ONEWEB-0392,2021-132D,2026-06-09T11:41:15.314784,13.17648364,.00022241,87.9149,7.3783,85.3313,274.8073,0,U,50472,999,21710,.12906844E-3,.63E-6,0
ONEWEB-0393,2021-132E,2026-06-09T12:55:21.909792,13.17649192,.00020378,87.9139,7.3863,85.9448,274.1916,0,U,50473,999,21710,.3502606E-4,.26E-6,0
ONEWEB-0394,2021-132F,2026-06-09T12:15:02.858400,13.18685144,.00020377,87.9168,336.9698,87.2165,272.9200,0,U,50474,999,22058,.19916232E-3,.91E-6,0
