ONEWEB-0365             
1 49291U 21090N   26160.45338880  .00000047  00000+0  84098-4 0  9994
2 49291  87.9174 306.5073 0001762  98.1343 261.9989 13.19724482225409
ONEWEB-0366             
1 49292U 21090P   26160.36740318  .00000154  00000+0  38213-3 0  9994
2 49292  87.8958 291.2654 0001925  99.9933 260.1414 13.14502551226534
ONEWEB-0367             
1 49293U 21090Q   26160.36022798  .00001435  00000+0  34957-2 0  9993
2 49293  87.9195 276.0004 0001843 105.3155 254.8183 13.20782964228794
ONEWEB-0368             
1 49294U 21090R   26160.56137405  .00000041  00000+0  69216-4 0  9998
2 49294  87.9179 275.9715 0001623  79.1185 281.0131 13.20770094229978
ONEWEB-0369             
1 49295U 21090S   26160.44865441  .00000022  00000+0  22281-4 0  9994
2 49295  87.9163 306.5165 0001771  95.5485 264.5850 13.19724242225399
ONEWEB-0370             
1 49296U 21090T   26160.36946185  .00000021  00000+0  18565-4 0  9990
2 49296  87.9191 275.9982 0002104 107.5029 252.6334 13.20770182228839
ONEWEB-0371             
1 49297U 21090U   26160.38072623  .00000042  00000+0  71775-4 0  9995
2 49297  87.9170 306.5217 0001792 100.2836 259.8498 13.19724642225427
ONEWEB-0372             
1 49298U 21090V   26160.58649595  .00000072  00000+0  14504-3 0  9995
2 49298  87.9191 275.9566 0001915 100.8795 259.2554 13.20771533228832
ONEWEB-0373             
1 49299U 21090W   26160.30886549  .00000024  00000+0  28144-4 0  9991
2 49299  87.9188 276.0125 0002027 100.3469 259.7893 13.20771111229980
ONEWEB-0374             
1 49300U 21090X   26160.43083941  .00000288  00000+0  74339-3 0  9991
2 49300  87.8961 291.2433 0002281  87.5595 272.5796 13.14503075226549
ONEWEB-0375             
1 49301U 21090Y   26160.37284430 -.00000031  00000+0 -10862-3 0  9990
2 49301  87.9192 275.9911 0002403  90.4206 269.7203 13.20770913229497
ONEWEB-0376             
1 49302U 21090Z   26160.45496667 -.00000025  00000+0 -93735-4 0  9991
2 49302  87.9173 306.5067 0001650  97.6886 262.4434 13.19725076225430
ONEWEB-0377             
1 49303U 21090AA  26160.58678728  .00000077  00000+0  15754-3 0  9995
2 49303  87.9191 275.9506 0002170 100.3155 259.8223 13.20772326229518
ONEWEB-0378             
1 49304U 21090AB  26160.37970038  .00000081  00000+0  16766-3 0  9991
2 49304  87.9186 275.9970 0002000  96.2905 263.8456 13.20770210228754
ONEWEB-0379             
1 49305U 21090AC  26160.34995812  .00000211  00000+0  53425-3 0  9994
2 49305  87.8959 291.2704 0001902  95.6060 264.5286 13.14502837226537
ONEWEB-0380             
1 49306U 21090AD  26160.45181625  .00000001  00000+0 -30562-4 0  9992
2 49306  87.9164 306.5132 0002052  97.6499 262.4867 13.19724585225405
ONEWEB-0381             
1 49307U 21090AE  26160.58328064  .00000113  00000+0  24688-3 0  9991
2 49307  87.9192 275.9559 0002134  94.1316 266.0061 13.20771953228828
ONEWEB-0382             
1 49308U 21090AF  26160.56979179  .00000065  00000+0  12688-3 0  9992
2 49308  87.9188 275.9529 0002056  92.0453 268.0915 13.20769815228816
ONEWEB-0383             
1 49309U 21090AG  26160.34359574  .00000247  00000+0  63133-3 0  9993
2 49309  87.8963 291.2627 0001851  94.7215 265.4126 13.14505334226566
ONEWEB-0384             
1 49310U 21090AH  26160.55867918  .00000041  00000+0  69566-4 0  9993
2 49310  87.9191 275.9986 0002077  87.1135 273.0236 13.20812405228822
ONEWEB-0385             
1 49311U 21090AJ  26160.56307947  .00000078  00000+0  16104-3 0  9995
2 49311  87.9189 275.9594 0002039  94.6756 265.4610 13.20772653228792
ONEWEB-0386             
1 49312U 21090AK  26160.57991244  .00000097  00000+0  20554-3 0  9991
2 49312  87.9193 275.9468 0001993  92.5360 267.6001 13.20771780228815
ONEWEB-0387             
1 49313U 21090AL  26160.33749223  .00000063  00000+0  12375-3 0  9999
2 49313  87.9178 276.0181 0002307  98.4247 261.7148 13.20772439228787
ONEWEB-0388             
1 49314U 21090AM  26160.44707828  .00000098  00000+0  21154-3 0  9990
2 49314  87.9164 306.5123 0001913  93.0026 267.1326 13.19724832225390
ONEWEB-0389             
1 50469U 21132A   26160.52916117  .00000004  00000+0 -22685-4 0  9991
2 50469  87.9138   7.3920 0002196  83.7552 276.3830 13.17647819217074
ONEWEB-0390             
1 50470U 21132B   26160.53084797  .00000048  00000+0  90635-4 0  9991
2 50470  87.9138   7.3925 0001909  93.6457 266.4893 13.17648119217079
ONEWEB-0391             
1 50471U 21132C   26160.53253670  .00000028  00000+0  38322-4 0  9993
2 50471  87.9138   7.4018 0002690  90.4631 269.6808 13.17647842217074
ONEWEB-0392             
1 50472U 21132D   26160.48698281  .00000063  00000+0  12907-3 0  9998
2 50472  87.9149   7.3783 0002224  85.3313 274.8073 13.17648364217104
ONEWEB-0393             
1 50473U 21132E   26160.53844803  .00000026  00000+0  35026-4 0  9995
2 50473  87.9139   7.3863 0002037  85.9448 274.1916 13.17649192217109
ONEWEB-0394             
1 50474U 21132F   26160.51044975  .00000091  00000+0  19916-3 0  9997
2 50474  87.9168 336.9698 0002037  87.2165 272.9200 13.18685144220586
